{"type": "FeatureCollection", "features": [ {"type": "Feature", "properties": {"norad_id": 37960, "name": "COSMOS 2251 DEB", "group": "cosmos-2251-debris", "lat": -72.65166329062994, "lon": 138.86199508364328, "alt_km": 756.4012885090187, "timestamp": "2025-12-02T08:59:33.112686+00:00", "meta": {"OBJECT_NAME": "COSMOS 2251 DEB", "OBJECT_ID": "1993-036BPK", "EPOCH": "2025-12-01T21:26:55.399200", "MEAN_MOTION": 14.07801052, "ECCENTRICITY": 0.0249831, "INCLINATION": 74.0589, "RA_OF_ASC_NODE": 205.8992, "ARG_OF_PERICENTER": 227.2395, "MEAN_ANOMALY": 130.7486, "EPHEMERIS_TYPE": 0, "CLASSIFICATION_TYPE": "U", "NORAD_CAT_ID": 37960, "ELEMENT_SET_NO": 999, "REV_AT_EPOCH": 77253, "BSTAR": 0.0010378, "MEAN_MOTION_DOT": 2.314e-05, "MEAN_MOTION_DDOT": 0}, "tle": {"line1": "1 37960U 93036BPK 25335.89369675  .00002314  00000+0  10378-2 0  9997", "line2": "2 37960  74.0589 205.8992 0249831 227.2395 130.7486 14.07801052772533"}}, "geometry": {"type": "Point", "coordinates": [138.86199508364328, -72.65166329062994]}}, {"type": "Feature", "properties": {"norad_id": 37961, "name": "COSMOS 2251 DEB", "group": "cosmos-2251-debris", "lat": 50.76712373356106, "lon": 177.32918390628166, "alt_km": 724.324162484947, "timestamp": "2025-12-02T08:59:33.112697+00:00", "meta": {"OBJECT_NAME": "COSMOS 2251 DEB", "OBJECT_ID": "1993-036BPL", "EPOCH": "2025-12-01T04:44:47.787648", "MEAN_MOTION": 14.57792656, "ECCENTRICITY": 0.0041244, "INCLINATION": 74.04, "RA_OF_ASC_NODE": 159.049, "ARG_OF_PERICENTER": 241.5465, "MEAN_ANOMALY": 118.1542, "EPHEMERIS_TYPE": 0, "CLASSIFICATION_TYPE": "U", "NORAD_CAT_ID": 37961, "ELEMENT_SET_NO": 999, "REV_AT_EPOCH": 79897, "BSTAR": 0.001072, "MEAN_MOTION_DOT": 4.934e-05, "MEAN_MOTION_DDOT": 0}, "tle": {"line1": "1 37961U 93036BPL 25335.19777532  .00004934  00000+0  10720-2 0  9997", "line2": "2 37961  74.0400 159.0490 0041244 241.5465 118.1542 14.57792656798977"}}, "geometry": {"type": "Point", "coordinates": [177.32918390628166, 50.76712373356106]}}, {"type": "Feature", "properties": {"norad_id": 37966, "name": "COSMOS 2251 DEB", "group": "cosmos-2251-debris", "lat": -51.36989451320643, "lon": -128.99974125777703, "alt_km": 545.7234951684877, "timestamp": "2025-12-02T08:59:33.112707+00:00", "meta": {"OBJECT_NAME": "COSMOS 2251 DEB", "OBJECT_ID": "1993-036BPR", "EPOCH": "2025-12-02T02:52:36.044832", "MEAN_MOTION": 15.10922267, "ECCENTRICITY": 0.000843, "INCLINATION": 73.9762, "RA_OF_ASC_NODE": 252.6058, "ARG_OF_PERICENTER": 126.3763, "MEAN_ANOMALY": 233.8208, "EPHEMERIS_TYPE": 0, "CLASSIFICATION_TYPE": "U", "NORAD_CAT_ID": 37966, "ELEMENT_SET_NO": 999, "REV_AT_EPOCH": 85182, "BSTAR": 0.0034796, "MEAN_MOTION_DOT": 0.00058491, "MEAN_MOTION_DDOT": 0}, "tle": {"line1": "1 37966U 93036BPR 25336.11986163  .00058491  00000+0  34796-2 0  9993", "line2": "2 37966  73.9762 252.6058 0008430 126.3763 233.8208 15.10922267851823"}}, "geometry": {"type": "Point", "coordinates": [-128.99974125777703, -51.36989451320643]}}, {"type": "Feature", "properties": {"norad_id": 37967, "name": "COSMOS 2251 DEB", "group": "cosmos-2251-debris", "lat": 60.95133227252819, "lon": -54.491009472424345, "alt_km": 858.4784076778733, "timestamp": "2025-12-02T08:59:33.112717+00:00", "meta": {"OBJECT_NAME": "COSMOS 2251 DEB", "OBJECT_ID": "1993-036BPS", "EPOCH": "2025-12-01T22:27:16.344576", "MEAN_MOTION": 14.40342761, "ECCENTRICITY": 0.015073, "INCLINATION": 74.0139, "RA_OF_ASC_NODE": 157.3949, "ARG_OF_PERICENTER": 298.516, "MEAN_ANOMALY": 60.0886, "EPHEMERIS_TYPE": 0, "CLASSIFICATION_TYPE": "U", "NORAD_CAT_ID": 37967, "ELEMENT_SET_NO": 999, "REV_AT_EPOCH": 64580, "BSTAR": 0.0014485, "MEAN_MOTION_DOT": 5.228e-05, "MEAN_MOTION_DDOT": 0}, "tle": {"line1": "1 37967U 93036BPS 25335.93560584  .00005228  00000+0  14485-2 0  9991", "line2": "2 37967  74.0139 157.3949 0150730 298.5160  60.0886 14.40342761645806"}}, "geometry": {"type": "Point", "coordinates": [-54.491009472424345, 60.95133227252819]}}, {"type": "Feature", "properties": {"norad_id": 37968, "name": "COSMOS 2251 DEB", "group": "cosmos-2251-debris", "lat": -10.60236267806425, "lon": 115.36436614791387, "alt_km": 613.4259277104884, "timestamp": "2025-12-02T08:59:33.112727+00:00", "meta": {"OBJECT_NAME": "COSMOS 2251 DEB", "OBJECT_ID": "1993-036BPT", "EPOCH": "2025-12-01T14:32:40.112448", "MEAN_MOTION": 15.00143436, "ECCENTRICITY": 0.00809552, "INCLINATION": 73.9999, "RA_OF_ASC_NODE": 293.8509, "ARG_OF_PERICENTER": 52.3614, "MEAN_ANOMALY": 308.4882, "EPHEMERIS_TYPE": 0, "CLASSIFICATION_TYPE": "U", "NORAD_CAT_ID": 37968, "ELEMENT_SET_NO": 999, "REV_AT_EPOCH": 60052, "BSTAR": 0.00099024545, "MEAN_MOTION_DOT": 0.00013234, "MEAN_MOTION_DDOT": 0}, "tle": {"line1": "1 37968U 93036BPT 25335.60601982  .00013234  00000+0  99025-3 0  9994", "line2": "2 37968  73.9999 293.8509 0080955  52.3614 308.4882 15.00143436600528"}}, "geometry": {"type": "Point", "coordinates": [115.36436614791387, -10.60236267806425]}}, {"type": "Feature", "properties": {"norad_id": 37971, "name": "COSMOS 2251 DEB", "group": "cosmos-2251-debris", "lat": -59.02383257865861, "lon": -90.22053313118309, "alt_km": 700.7661669659547, "timestamp": "2025-12-02T08:59:33.112738+00:00", "meta": {"OBJECT_NAME": "COSMOS 2251 DEB", "OBJECT_ID": "1993-036BPW", "EPOCH": "2025-12-01T23:35:09.695040", "MEAN_MOTION": 14.4833752, "ECCENTRICITY": 0.0068809, "INCLINATION": 73.9931, "RA_OF_ASC_NODE": 61.947, "ARG_OF_PERICENTER": 202.8876, "MEAN_ANOMALY": 156.9214, "EPHEMERIS_TYPE": 0, "CLASSIFICATION_TYPE": "U", "NORAD_CAT_ID": 37971, "ELEMENT_SET_NO": 999, "REV_AT_EPOCH": 60522, "BSTAR": 0.002276, "MEAN_MOTION_DOT": 8.753e-05, "MEAN_MOTION_DDOT": 0}, "tle": {"line1": "1 37971U 93036BPW 25335.98275110  .00008753  00000+0  22760-2 0  9990", "line2": "2 37971  73.9931  61.9470 0068809 202.8876 156.9214 14.48337520605222"}}, "geometry": {"type": "Point", "coordinates": [-90.22053313118309, -59.02383257865861]}}, {"type": "Feature", "properties": {"norad_id": 37975, "name": "COSMOS 2251 DEB", "group": "cosmos-2251-debris", "lat": -18.075610213007103, "lon": 169.76550651838858, "alt_km": 699.3273391998937, "timestamp": "2025-12-02T08:59:33.112748+00:00", "meta": {"OBJECT_NAME": "COSMOS 2251 DEB", "OBJECT_ID": "1993-036BQA", "EPOCH": "2025-11-29T10:05:48.736608", "MEAN_MOTION": 14.74991313, "ECCENTRICITY": 0.00977788, "INCLINATION": 74.0026, "RA_OF_ASC_NODE": 350.1763, "ARG_OF_PERICENTER": 342.2584, "MEAN_ANOMALY": 17.5181, "EPHEMERIS_TYPE": 0, "CLASSIFICATION_TYPE": "U", "NORAD_CAT_ID": 37975, "ELEMENT_SET_NO": 999, "REV_AT_EPOCH": 69549, "BSTAR": 0.0028756754, "MEAN_MOTION_DOT": 0.00020929, "MEAN_MOTION_DDOT": 0}, "tle": {"line1": "1 37975U 93036BQA 25333.42070297  .00020929  00000+0  28757-2 0  9991", "line2": "2 37975  74.0026 350.1763 0097778 342.2584  17.5181 14.74991313695491"}}, "geometry": {"type": "Point", "coordinates": [169.76550651838858, -18.075610213007103]}}, {"type": "Feature", "properties": {"norad_id": 37978, "name": "COSMOS 2251 DEB", "group": "cosmos-2251-debris", "lat": 37.03600649818643, "lon": 125.12278887098412, "alt_km": 343.3984236572496, "timestamp": "2025-12-02T08:59:33.112758+00:00", "meta": {"OBJECT_NAME": "COSMOS 2251 DEB", "OBJECT_ID": "1993-036BQD", "EPOCH": "2025-11-19T05:08:53.100672", "MEAN_MOTION": 15.61137081, "ECCENTRICITY": 0.00148985, "INCLINATION": 74.0238, "RA_OF_ASC_NODE": 142.2198, "ARG_OF_PERICENTER": 140.9849, "MEAN_ANOMALY": 219.2448, "EPHEMERIS_TYPE": 0, "CLASSIFICATION_TYPE": "U", "NORAD_CAT_ID": 37978, "ELEMENT_SET_NO": 999, "REV_AT_EPOCH": 8032, "BSTAR": 0.0043958825, "MEAN_MOTION_DOT": 0.0039117, "MEAN_MOTION_DDOT": 0}, "tle": {"line1": "1 37978U 93036BQD 25323.21450348  .00391170  00000+0  43959-2 0  9999", "line2": "2 37978  74.0238 142.2198 0014898 140.9849 219.2448 15.61137081 80328"}}, "geometry": {"type": "Point", "coordinates": [125.12278887098412, 37.03600649818643]}}, {"type": "Feature", "properties": {"norad_id": 37985, "name": "COSMOS 2251 DEB", "group": "cosmos-2251-debris", "lat": -35.68096526485995, "lon": -87.10789876748505, "alt_km": 778.9194346974282, "timestamp": "2025-12-02T08:59:33.112768+00:00", "meta": {"OBJECT_NAME": "COSMOS 2251 DEB", "OBJECT_ID": "1993-036BQL", "EPOCH": "2025-11-30T03:38:35.089728", "MEAN_MOTION": 14.35476198, "ECCENTRICITY": 0.00203975, "INCLINATION": 74.025, "RA_OF_ASC_NODE": 288.8408, "ARG_OF_PERICENTER": 55.5438, "MEAN_ANOMALY": 304.7638, "EPHEMERIS_TYPE": 0, "CLASSIFICATION_TYPE": "U", "NORAD_CAT_ID": 37985, "ELEMENT_SET_NO": 999, "REV_AT_EPOCH": 64736, "BSTAR": 6.4630742e-05, "MEAN_MOTION_DOT": 1.6e-06, "MEAN_MOTION_DDOT": 0}, "tle": {"line1": "1 37985U 93036BQL 25334.15179502  .00000160  00000+0  64631-4 0  9990", "line2": "2 37985  74.0250 288.8408 0020397  55.5438 304.7638 14.35476198647366"}}, "geometry": {"type": "Point", "coordinates": [-87.10789876748505, -35.68096526485995]}}, {"type": "Feature", "properties": {"norad_id": 37988, "name": "COSMOS 2251 DEB", "group": "cosmos-2251-debris", "lat": 15.701426928859298, "lon": -140.5571097201485, "alt_km": 656.4193519104747, "timestamp": "2025-12-02T08:59:33.112778+00:00", "meta": {"OBJECT_NAME": "COSMOS 2251 DEB", "OBJECT_ID": "1993-036BQP", "EPOCH": "2025-12-01T20:48:48.431808", "MEAN_MOTION": 14.68693612, "ECCENTRICITY": 0.0063397, "INCLINATION": 74.0639, "RA_OF_ASC_NODE": 45.0298, "ARG_OF_PERICENTER": 86.1947, "MEAN_ANOMALY": 274.6469, "EPHEMERIS_TYPE": 0, "CLASSIFICATION_TYPE": "U", "NORAD_CAT_ID": 37988, "ELEMENT_SET_NO": 999, "REV_AT_EPOCH": 23236, "BSTAR": 0.00094923, "MEAN_MOTION_DOT": 5.671e-05, "MEAN_MOTION_DDOT": 0}, "tle": {"line1": "1 37988U 93036BQP 25335.86722722  .00005671  00000+0  94923-3 0  9998", "line2": "2 37988  74.0639  45.0298 0063397  86.1947 274.6469 14.68693612232367"}}, "geometry": {"type": "Point", "coordinates": [-140.5571097201485, 15.701426928859298]}}]}